
[{"ORDINAL":"1","COMMENT":"GENERATED VIA SPACETRACK.ORG API","ORIGINATOR":"JSPOC","NORAD_CAT_ID":"40265","OBJECT_NAME":"CZ-2C DEB","OBJECT_TYPE":"DEBRIS","CLASSIFICATION_TYPE":"U","INTLDES":"14059E","EPOCH":"2015-04-10 11:56:06","EPOCH_MICROSECONDS":"657791","MEAN_MOTION":"14.18510522","ECCENTRICITY":"0.0197641","INCLINATION":"97.9283","RA_OF_ASC_NODE":"173.4525","ARG_OF_PERICENTER":"320.3209","MEAN_ANOMALY":"38.3647","EPHEMERIS_TYPE":"0","ELEMENT_SET_NO":"999","REV_AT_EPOCH":"2753","BSTAR":"0.0004605","MEAN_MOTION_DOT":"1.115e-05","MEAN_MOTION_DDOT":"0","FILE":"1854048","TLE_LINE0":"0 CZ-2C DEB","TLE_LINE1":"1 40265U 14059E   15100.49729928  .00001115  00000-0  46050-3 0  9999","TLE_LINE2":"2 40265 097.9283 173.4525 0197641 320.3209 038.3647 14.18510522 27538","OBJECT_ID":"2014-059E","OBJECT_NUMBER":"40265"},{"ORDINAL":"1","COMMENT":"GENERATED VIA SPACETRACK.ORG API","ORIGINATOR":"JSPOC","NORAD_CAT_ID":"40113","OBJECT_NAME":"CZ-4C DEB","OBJECT_TYPE":"DEBRIS","CLASSIFICATION_TYPE":"U","INTLDES":"14047E","EPOCH":"2015-04-10 12:00:40","EPOCH_MICROSECONDS":"576896","MEAN_MOTION":"13.43946413","ECCENTRICITY":"0.0031938","INCLINATION":"63.4139","RA_OF_ASC_NODE":"86.0264","ARG_OF_PERICENTER":"15.2796","MEAN_ANOMALY":"344.9188","EPHEMERIS_TYPE":"0","ELEMENT_SET_NO":"999","REV_AT_EPOCH":"3282","BSTAR":"0","MEAN_MOTION_DOT":"-9e-07","MEAN_MOTION_DDOT":"0","FILE":"1854127","TLE_LINE0":"0 CZ-4C DEB","TLE_LINE1":"1 40113U 14047E   15100.50046964 -.00000090  00000-0  00000+0 0  9995","TLE_LINE2":"2 40113 063.4139 086.0264 0031938 015.2796 344.9188 13.43946413 32827","OBJECT_ID":"2014-047E","OBJECT_NUMBER":"40113"},{"ORDINAL":"1","COMMENT":"GENERATED VIA SPACETRACK.ORG API","ORIGINATOR":"JSPOC","NORAD_CAT_ID":"40266","OBJECT_NAME":"CZ-2C DEB","OBJECT_TYPE":"DEBRIS","CLASSIFICATION_TYPE":"U","INTLDES":"14059F","EPOCH":"2015-04-10 12:14:05","EPOCH_MICROSECONDS":"411903","MEAN_MOTION":"14.19573189","ECCENTRICITY":"0.0193386","INCLINATION":"98.3423","RA_OF_ASC_NODE":"182.611","ARG_OF_PERICENTER":"323.9142","MEAN_ANOMALY":"34.9107","EPHEMERIS_TYPE":"0","ELEMENT_SET_NO":"999","REV_AT_EPOCH":"2755","BSTAR":"0.00049053","MEAN_MOTION_DOT":"1.204e-05","MEAN_MOTION_DDOT":"0","FILE":"1853988","TLE_LINE0":"0 CZ-2C DEB","TLE_LINE1":"1 40266U 14059F   15100.50978486  .00001204  00000-0  49053-3 0  9992","TLE_LINE2":"2 40266 098.3423 182.6110 0193386 323.9142 034.9107 14.19573189 27553","OBJECT_ID":"2014-059F","OBJECT_NUMBER":"40266"},{"ORDINAL":"1","COMMENT":"GENERATED VIA SPACETRACK.ORG API","ORIGINATOR":"JSPOC","NORAD_CAT_ID":"40507","OBJECT_NAME":"BREEZE-M DEB (TANK)","OBJECT_TYPE":"DEBRIS","CLASSIFICATION_TYPE":"U","INTLDES":"15012C","EPOCH":"2015-04-10 12:16:06","EPOCH_MICROSECONDS":"244032","MEAN_MOTION":"4.76835182","ECCENTRICITY":"0.5492692","INCLINATION":"49.4917","RA_OF_ASC_NODE":"141.2193","ARG_OF_PERICENTER":"6.5957","MEAN_ANOMALY":"358.4422","EPHEMERIS_TYPE":"0","ELEMENT_SET_NO":"999","REV_AT_EPOCH":"107","BSTAR":"0","MEAN_MOTION_DOT":"-1.32e-06","MEAN_MOTION_DDOT":"0","FILE":"1854109","TLE_LINE0":"0 BREEZE-M DEB (TANK)","TLE_LINE1":"1 40507U 15012C   15100.51118338 -.00000132  00000-0  00000+0 0  9998","TLE_LINE2":"2 40507 049.4917 141.2193 5492692 006.5957 358.4422 04.76835182  1072","OBJECT_ID":"2015-012C","OBJECT_NUMBER":"40507"},{"ORDINAL":"2","COMMENT":"GENERATED VIA SPACETRACK.ORG API","ORIGINATOR":"JSPOC","NORAD_CAT_ID":"40537","OBJECT_NAME":"SL-24 DEB","OBJECT_TYPE":"DEBRIS","CLASSIFICATION_TYPE":"U","INTLDES":"15014B","EPOCH":"2015-04-10 12:56:07","EPOCH_MICROSECONDS":"111680","MEAN_MOTION":"15.16896286","ECCENTRICITY":"0.0023793","INCLINATION":"97.5157","RA_OF_ASC_NODE":"41.0254","ARG_OF_PERICENTER":"271.5071","MEAN_ANOMALY":"88.3464","EPHEMERIS_TYPE":"0","ELEMENT_SET_NO":"999","REV_AT_EPOCH":"236","BSTAR":"0.00077487","MEAN_MOTION_DOT":"0.00015327","MEAN_MOTION_DDOT":"0","FILE":"1854148","TLE_LINE0":"0 SL-24 DEB","TLE_LINE1":"1 40537U 15014B   15100.53897120  .00015327  00000-0  77487-3 0  9996","TLE_LINE2":"2 40537 097.5157 041.0254 0023793 271.5071 088.3464 15.16896286  2364","OBJECT_ID":"2015-014B","OBJECT_NUMBER":"40537"},{"ORDINAL":"3","COMMENT":"GENERATED VIA SPACETRACK.ORG API","ORIGINATOR":"JSPOC","NORAD_CAT_ID":"40309","OBJECT_NAME":"CZ-2C DEB","OBJECT_TYPE":"DEBRIS","CLASSIFICATION_TYPE":"U","INTLDES":"14071E","EPOCH":"2015-04-10 13:58:24","EPOCH_MICROSECONDS":"673727","MEAN_MOTION":"15.15368823","ECCENTRICITY":"0.0101954","INCLINATION":"97.1408","RA_OF_ASC_NODE":"39.8628","ARG_OF_PERICENTER":"58.8694","MEAN_ANOMALY":"302.2223","EPHEMERIS_TYPE":"0","ELEMENT_SET_NO":"999","REV_AT_EPOCH":"2209","BSTAR":"0.0032397","MEAN_MOTION_DOT":"0.00070211","MEAN_MOTION_DDOT":"0","FILE":"1854314","TLE_LINE0":"0 CZ-2C DEB","TLE_LINE1":"1 40309U 14071E   15100.58223002  .00070211  00000-0  32397-2 0  9995","TLE_LINE2":"2 40309 097.1408 039.8628 0101954 058.8694 302.2223 15.15368823 22092","OBJECT_ID":"2014-071E","OBJECT_NUMBER":"40309"},{"ORDINAL":"1","COMMENT":"GENERATED VIA SPACETRACK.ORG API","ORIGINATOR":"JSPOC","NORAD_CAT_ID":"40049","OBJECT_NAME":"SL-24 PLAT","OBJECT_TYPE":"DEBRIS","CLASSIFICATION_TYPE":"U","INTLDES":"14033AR","EPOCH":"2015-04-10 14:59:12","EPOCH_MICROSECONDS":"126624","MEAN_MOTION":"14.86234265","ECCENTRICITY":"0.0014673","INCLINATION":"97.9664","RA_OF_ASC_NODE":"0.7945","ARG_OF_PERICENTER":"41.9995","MEAN_ANOMALY":"318.234","EPHEMERIS_TYPE":"0","ELEMENT_SET_NO":"999","REV_AT_EPOCH":"4360","BSTAR":"0.00028086","MEAN_MOTION_DOT":"2.417e-05","MEAN_MOTION_DDOT":"0","FILE":"1854153","TLE_LINE0":"0 SL-24 PLAT","TLE_LINE1":"1 40049U 14033AR  15100.62444591  .00002417  00000-0  28086-3 0  9991","TLE_LINE2":"2 40049 097.9664 000.7945 0014673 041.9995 318.2340 14.86234265 43608","OBJECT_ID":"2014-033AR","OBJECT_NUMBER":"40049"},{"ORDINAL":"1","COMMENT":"GENERATED VIA SPACETRACK.ORG API","ORIGINATOR":"JSPOC","NORAD_CAT_ID":"40260","OBJECT_NAME":"BREEZE-M DEB (TANK)","OBJECT_TYPE":"DEBRIS","CLASSIFICATION_TYPE":"U","INTLDES":"14058C","EPOCH":"2015-04-10 15:30:46","EPOCH_MICROSECONDS":"396511","MEAN_MOTION":"2.27130447","ECCENTRICITY":"0.7225875","INCLINATION":"45.5882","RA_OF_ASC_NODE":"267.4501","ARG_OF_PERICENTER":"54.1911","MEAN_ANOMALY":"353.1417","EPHEMERIS_TYPE":"0","ELEMENT_SET_NO":"999","REV_AT_EPOCH":"439","BSTAR":"0.00052732","MEAN_MOTION_DOT":"2.18e-06","MEAN_MOTION_DDOT":"0","FILE":"1854528","TLE_LINE0":"0 BREEZE-M DEB (TANK)","TLE_LINE1":"1 40260U 14058C   15100.64637033  .00000218  00000-0  52732-3 0  9992","TLE_LINE2":"2 40260 045.5882 267.4501 7225875 054.1911 353.1417 02.27130447  4398","OBJECT_ID":"2014-058C","OBJECT_NUMBER":"40260"},{"ORDINAL":"2","COMMENT":"GENERATED VIA SPACETRACK.ORG API","ORIGINATOR":"JSPOC","NORAD_CAT_ID":"40304","OBJECT_NAME":"SL-24 PLAT","OBJECT_TYPE":"DEBRIS","CLASSIFICATION_TYPE":"U","INTLDES":"14070G","EPOCH":"2015-04-10 16:51:51","EPOCH_MICROSECONDS":"107904","MEAN_MOTION":"15.31584211","ECCENTRICITY":"0.0017816","INCLINATION":"97.462","RA_OF_ASC_NODE":"185.585","ARG_OF_PERICENTER":"172.9902","MEAN_ANOMALY":"187.2107","EPHEMERIS_TYPE":"0","ELEMENT_SET_NO":"999","REV_AT_EPOCH":"2397","BSTAR":"0.00067816","MEAN_MOTION_DOT":"0.00020752","MEAN_MOTION_DDOT":"0","FILE":"1854168","TLE_LINE0":"0 SL-24 PLAT","TLE_LINE1":"1 40304U 14070G   15100.70267486  .00020752  00000-0  67816-3 0  9997","TLE_LINE2":"2 40304 097.4620 185.5850 0017816 172.9902 187.2107 15.31584211 23974","OBJECT_ID":"2014-070G","OBJECT_NUMBER":"40304"},{"ORDINAL":"2","COMMENT":"GENERATED VIA SPACETRACK.ORG API","ORIGINATOR":"JSPOC","NORAD_CAT_ID":"40366","OBJECT_NAME":"BREEZE-M DEB (TANK)","OBJECT_TYPE":"DEBRIS","CLASSIFICATION_TYPE":"U","INTLDES":"14089C","EPOCH":"2015-04-10 17:03:25","EPOCH_MICROSECONDS":"750079","MEAN_MOTION":"5.18518148","ECCENTRICITY":"0.5242944","INCLINATION":"49.5464","RA_OF_ASC_NODE":"350.5645","ARG_OF_PERICENTER":"60.0649","MEAN_ANOMALY":"341.8123","EPHEMERIS_TYPE":"0","ELEMENT_SET_NO":"999","REV_AT_EPOCH":"538","BSTAR":"0","MEAN_MOTION_DOT":"-1.04e-06","MEAN_MOTION_DDOT":"0","FILE":"1854168","TLE_LINE0":"0 BREEZE-M DEB (TANK)","TLE_LINE1":"1 40366U 14089C   15100.71071470 -.00000104  00000-0  00000+0 0  9990","TLE_LINE2":"2 40366 049.5464 350.5645 5242944 060.0649 341.8123 05.18518148  5385","OBJECT_ID":"2014-089C","OBJECT_NUMBER":"40366"},{"ORDINAL":"1","COMMENT":"GENERATED VIA SPACETRACK.ORG API","ORIGINATOR":"JSPOC","NORAD_CAT_ID":"40366","OBJECT_NAME":"BREEZE-M DEB (TANK)","OBJECT_TYPE":"DEBRIS","CLASSIFICATION_TYPE":"U","INTLDES":"14089C","EPOCH":"2015-04-10 17:03:25","EPOCH_MICROSECONDS":"439039","MEAN_MOTION":"5.18517222","ECCENTRICITY":"0.5242841","INCLINATION":"49.537","RA_OF_ASC_NODE":"350.5934","ARG_OF_PERICENTER":"60.0398","MEAN_ANOMALY":"341.762","EPHEMERIS_TYPE":"0","ELEMENT_SET_NO":"999","REV_AT_EPOCH":"537","BSTAR":"0.0017266","MEAN_MOTION_DOT":"6.172e-05","MEAN_MOTION_DDOT":"0","FILE":"1854189","TLE_LINE0":"0 BREEZE-M DEB (TANK)","TLE_LINE1":"1 40366U 14089C   15100.71071110  .00006172  00000-0  17266-2 0  9996","TLE_LINE2":"2 40366 049.5370 350.5934 5242841 060.0398 341.7620 05.18517222  5371","OBJECT_ID":"2014-089C","OBJECT_NUMBER":"40366"},{"ORDINAL":"4","COMMENT":"GENERATED VIA SPACETRACK.ORG API","ORIGINATOR":"JSPOC","NORAD_CAT_ID":"40309","OBJECT_NAME":"CZ-2C DEB","OBJECT_TYPE":"DEBRIS","CLASSIFICATION_TYPE":"U","INTLDES":"14071E","EPOCH":"2015-04-10 17:08:37","EPOCH_MICROSECONDS":"118400","MEAN_MOTION":"15.15358859","ECCENTRICITY":"0.010031","INCLINATION":"97.1414","RA_OF_ASC_NODE":"39.9939","ARG_OF_PERICENTER":"60.1229","MEAN_ANOMALY":"301.0459","EPHEMERIS_TYPE":"0","ELEMENT_SET_NO":"999","REV_AT_EPOCH":"2212","BSTAR":"0.0060448","MEAN_MOTION_DOT":"0.00129442","MEAN_MOTION_DDOT":"0","FILE":"1854174","TLE_LINE0":"0 CZ-2C DEB","TLE_LINE1":"1 40309U 14071E   15100.71431850  .00129442  00000-0  60448-2 0  9991","TLE_LINE2":"2 40309 097.1414 039.9939 0100310 060.1229 301.0459 15.15358859 22120","OBJECT_ID":"2014-071E","OBJECT_NUMBER":"40309"}]